ONEWEB-0607             
1 54671U 22166AF  24217.93367463  .00000066  00000+0  12949-3 0  9996
2 54671  87.9298  19.5838 0002063  88.7360 271.4010 13.21825388 81549
ONEWEB-0608             
1 54672U 22166AG  24217.93997480  .00000122  00000+0  26293-3 0  9995
2 54672  87.9302  19.6067 0002421  91.5667 268.5745 13.21826560 81557
ONEWEB-0610             
1 54673U 22166AH  24218.14814132 -.00000029  00000+0 -10074-3 0  9990
2 54673  87.9297  19.5579 0002310  92.5927 267.5471 13.21827023 81959
ONEWEB-0611             
1 54674U 22166AJ  24218.52031185  .00000047  00000+0  81127-4 0  9998
2 54674  87.9297  19.4826 0001435  92.0983 268.0315 13.21826842 81993
ONEWEB-0612             
1 54675U 22166AK  24218.15444959  .00000021  00000+0  18405-4 0  9996
2 54675  87.9296  19.5373 0002121  92.3713 267.7663 13.21826719 81937
ONEWEB-0615             
1 54676U 22166AL  24218.89247708 -.00000319  00000+0 -80456-3 0  9997
2 54676  87.9297  19.4155 0001936  85.4515 274.6840 13.21825453 82043
ONEWEB-0655             
1 54677U 22166AM  24218.86568842  .00000054  00000+0  10017-3 0  9990
2 54677  87.9298  19.4231 0001962  77.7949 282.3404 13.21824175 82035
ONEWEB-0659             
1 54678U 22166AN  24218.88302194 -.00000012  00000+0 -60627-4 0  9998
2 54678  87.9298  19.4256 0001728  97.8411 262.2919 13.21823703 82124
